0 FENGYUN 1C DEB
1 30351U 99025ABN 13281.97626682  .00121615  00000-0  51332-1 0  9708
2 30351 099.1052 112.1089 0480758 337.2914 020.7590 13.77072635311608
0 FENGYUN 1C DEB
1 30351U 99025ABN 13282.19422255  .00140981  00000-0  59316-1 0  9711
2 30351 099.1045 112.3180 0480623 336.7284 021.2741 13.77140288311636
0 FENGYUN 1C DEB
1 30351U 99025ABN 13282.77539679  .00095951  00000-0  40459-1 0  9729
2 30351 099.1027 112.8760 0480463 335.2596 022.6181 13.77291681311713
0 FENGYUN 1C DEB
1 30351U 99025ABN 13283.21123988  .00108596  00000-0  45655-1 0  9735
2 30351 099.1023 113.2958 0480567 334.1483 023.6348 13.77342719311772
0 FENGYUN 1C DEB
1 30351U 99025ABN 13283.50179586  .00111388  00000-0  47500-1 0  9736
2 30351 099.1166 113.5797 0479383 333.1202 024.6263 13.77422659311810
0 FENGYUN 1C DEB
1 30351U 99025ABN 13284.01023208  .00087771  00000-0  36905-1 0  9748
2 30351 099.1003 114.0635 0480370 332.1264 025.4886 13.77472451311884
0 FENGYUN 1C DEB
1 30351U 99025ABN 13284.51864046  .00100049  00000-0  41826-1 0  9759
2 30351 099.0999 114.5542 0481081 330.8267 026.6774 13.77549552311951
0 FENGYUN 1C DEB
1 30351U 99025ABN 13285.31751254  .00079611  00000-0  33283-1 0  9763
2 30351 099.1023 115.3269 0480896 328.8349 028.5081 13.77680589312067
0 FENGYUN 1C DEB
1 30351U 99025ABN 13285.75322937  .00085311  00000-0  35617-1 0  9771
2 30351 099.1009 115.7471 0480624 327.6771 029.5747 13.77755848312123
0 FENGYUN 1C DEB
1 30351U 99025ABN 13286.98763772  .00081924  00000-0  34056-1 0  9786
2 30351 099.0994 116.9363 0480598 324.5668 032.4413 13.77966432312293
0 FENGYUN 1C DEB
1 30351U 99025ABN 13287.49587032  .00098091  00000-0  40620-1 0  9794
2 30351 099.0996 117.4271 0480704 323.2773 033.6315 13.78036873312361
0 FENGYUN 1C DEB
1 30351U 99025ABN 13288.43961144  .00154298  00000-0  63243-1 0  9809
2 30351 099.0984 118.3367 0480087 320.8899 035.8443 13.78311861312493
0 FENGYUN 1C DEB
1 30351U 99025ABN 13289.74604724  .00147426  00000-0  60111-1 0  9819
2 30351 099.0988 119.5983 0479940 317.6101 038.8888 13.78598219312670
0 FENGYUN 1C DEB
1 30351U 99025ABN 13290.18146893  .00130367  00000-0  53253-1 0  9823
2 30351 099.0963 120.0157 0479259 316.5110 039.9163 13.78710282312735
0 FENGYUN 1C DEB
1 30351U 99025ABN 13291.19732959  .00120656  00000-0  49142-1 0  9832
2 30351 099.0950 120.9949 0478840 313.9534 042.3036 13.78953659312874
0 FENGYUN 1C DEB
1 30351U 99025ABN 13292.06793141  .00106859  00000-0  43445-1 0  9849
2 30351 099.0956 121.8380 0478582 311.7856 044.3321 13.79141028312997
0 FENGYUN 1C DEB
1 30351U 99025ABN 13292.50318657  .00120969  00000-0  49034-1 0  9852
2 30351 099.0949 122.2581 0478406 310.6841 045.3653 13.79231900313050
0 FENGYUN 1C DEB
1 30351U 99025ABN 13293.44613578  .00131371  00000-0  53007-1 0  9861
2 30351 099.0943 123.1689 0477993 308.3693 047.5417 13.79448383313183
0 FENGYUN 1C DEB
1 30351U 99025ABN 13293.51866410  .00126506  00000-0  51071-1 0  9878
2 30351 099.0942 123.2390 0477911 308.1675 047.7321 13.79462045313198
0 FENGYUN 1C DEB
1 30351U 99025ABN 13294.38893291  .00143707  00000-0  57581-1 0  9886
2 30351 099.0901 124.0821 0478081 306.3446 049.4467 13.79679718313317
0 FENGYUN 1C DEB
1 30351U 99025ABN 13294.46146646  .00139592  00000-0  55655-1 0  9898
2 30351 099.0896 124.1569 0479468 306.7267 049.0744 13.79692090313328
0 FENGYUN 1C DEB
1 30351U 99025ABN 13294.96907079  .00115262  00000-0  46225-1 0  9901
2 30351 099.0859 124.6449 0478018 305.4495 050.2914 13.79788391313398
0 FENGYUN 1C DEB
1 30351U 99025ABN 13295.47659835  .00166561  00000-0  66796-1 0  9916
2 30351 099.0867 125.1253 0475561 303.1822 052.4569 13.79938028313467
0 FENGYUN 1C DEB
1 30351U 99025ABN 13295.76660644  .00164237  00000-0  65572-1 0  9928
2 30351 099.0941 125.4093 0476466 302.5701 053.0282 13.79997805313501
